ONEWEB-0574             
1 56063U 23043T   24048.74272582 -.00000023  00000+0 -87390-4 0  9994
2 56063  87.9205  53.2511 0001782  85.8587 274.2750 13.21824828 45925
ONEWEB-0575             
1 56064U 23043U   24048.90261598  .00000022  00000+0  23319-4 0  9996
2 56064  87.9059  37.9884 0002115 103.3484 256.7883 13.16594326 47080
ONEWEB-0576             
1 56065U 23043V   24048.95959972  .00000142  00000+0  33725-3 0  9996
2 56065  87.9057  37.9772 0001627 101.0134 259.1180 13.16596290 47088
ONEWEB-0577             
1 56066U 23043W   24048.88995465  .00000126  00000+0  29703-3 0  9999
2 56066  87.9058  37.9897 0002351 108.2982 251.8405 13.16594385 47108
ONEWEB-0578             
1 56067U 23043X   24048.95719030  .00000171  00000+0  38354-3 0  9992
2 56067  87.9207  53.2026 0001763  91.3806 268.7530 13.21824929 45912
ONEWEB-0579             
1 56068U 23043Y   24048.94773664  .00000157  00000+0  34940-3 0  9996
2 56068  87.9206  53.2058 0002299  83.7924 276.3472 13.21826559 45920
ONEWEB-0581             
1 56069U 23043Z   24048.89628993  .00000054  00000+0  10672-3 0  9997
2 56069  87.9059  38.0181 0002398  96.3888 263.7516 13.16594932 47072
ONEWEB-0609             
1 56070U 23043AA  24048.78675325  .00000016  00000+0  96041-5 0  9992
2 56070  87.8945  68.4757 0001893  89.2287 270.9060 13.15546413 44628
